#dP2022 12 23  0  0  0.00000000      96 __u+U ITR00 FIT  IAC
## 2241 432000.00000000   900.00000000 59936 0.0000000000000
+  117   C06C07C08C09C10C11C12C13C14C16C19C20C21C22C23C24C25
+        C26C27C28C29C30C32C33C34C36C37C38C40C41C42C43C44C45
+        C46E01E02E03E04E05E07E08E09E10E11E12E13E14E15E18E19
+        E21E24E25E26E27E30E31E33E34E36G01G02G03G04G05G06G07
+        G08G09G10G11G12G13G14G15G16G17G18G19G20G21G22G23G24
+        G25G26G27G29G30G31G32J02J03J04R01R02R03R04R05R07R08
+        R09R11R12R13R14R15R16R17R18R19R20R21R22R24R25  0  0
++         8  9  9  8 10  7  6  9  7  8 10  9  7 10  6  7  7
++         6  8  9  6  7  6  7  8  6  9  9  7  6  8  8  6  7
++         6  7  7  7  7  8  6  6  6  5  7  5  6  7  6  7  9
++         6  7  8  6  4  6  7  6  6  6  6  6  5  6  6  6  6
++         6  8  6  5  6  6  5  6  5  5  6  6  5  5  6  8  6
++         5  6  5  7  6  6  6  8  7  9  7  5  7  5  6  7  8
++         6  7  7  6  7  5  6  6  5  6  8  6  5  6  8  0  0
%c M  cc GPS ccc cccc cccc cccc cccc ccccc ccccc ccccc ccccc
%c cc cc ccc ccc cccc cccc cccc cccc ccccc ccccc ccccc ccccc
%f  0.0000000  0.000000000  0.00000000000  0.000000000000000
%f  0.0000000  0.000000000  0.00000000000  0.000000000000000
%i    0    0    0    0      0      0      0      0         0
%i    0    0    0    0      0      0      0      0         0
/* INFORMATION & ANALYSIS CENTER (IAC)      ULTRA-RAPID DATA
/* S/V CLOCKS ARE ALIGNED TO GNSS TIME                      
/* G:C1WC2W R:C1PC2P E:C1XC5X C:C2IC6I J:C1CC2S             
/* PCV:IGS20_2239 OL/AL:FES2004  NONE     YN ORB:CoN CLK:CoN
*  2022 12 23  3 30  0.00000000
PC06  -2313.596407  26257.983398  32945.772387    213.776655
PC07 -15903.972306  33330.263766 -20441.849492    122.275227
PC08  -5152.804732  40227.183640 -11187.188362    524.580667
PC09   5291.831877  29332.032579  30391.868359   -776.463935
PC10 -10544.894159  33089.134980 -23916.798657     46.444015
PC11 -25572.540581 -11202.457379    319.415892   -220.263657
PC12 -14174.855647 -17622.264326  16400.459436    359.629575
PC13   -642.734837  41709.638771  -4775.424847    165.015878
PC14 -19434.689583  -1943.993534 -19935.034557    292.711374
PC16  -6643.145302  23880.750783  34319.679794     96.566989
PC19  23345.186576  -6683.640804  13762.476182   -901.568046
PC20  13671.096690   8864.689976  22662.245008    795.802072
PC21   5013.604413 -20225.541167 -18542.914212   -923.500774
PC22  20011.566910 -19107.471213  -3566.458190   -725.303584
PC23 -10753.972579  17981.932150  18424.032509   -871.011895
PC24 -12327.620763 -21705.651767  12491.790531   -638.609204
PC25 -16539.684792   -976.400463  22445.396723     43.792542
PC26  -2640.111926 -27647.761885  -2943.568695    -53.750934
PC27   5148.880767  17766.457674 -20914.017378     70.377533
PC28 -13926.699717  10621.454060 -21717.937542     50.396120
PC29  26217.820557   2676.972049   9179.270884     57.430393
PC30  22031.280435  14618.889396  -8963.808022      1.244001
PC32  -4935.520934  20313.520200  18500.081705   -673.632461
PC33 -23296.731275   6750.733298 -13805.652533   -889.949738
PC34 -22730.437048 -14130.257926   7853.652637     67.184276
PC36  16553.006031   2084.643718 -22351.294742   -747.782137
PC37   1062.957528  27546.230755   4239.393952   -871.948364
PC38  -9379.563747  37135.670838 -17410.650612     46.863217
PC40 -24380.174331  28485.289128 -19496.122290    -10.804429
PC41 -20227.881630  18987.075388   3043.095771   -410.487410
PC42 -12688.063929  -9846.255431 -22782.017802   -904.366404
PC43 -26382.077896  -3268.198853  -8456.344086 999999.999999
PC44  -5488.233406 -17641.488357  20896.713491    153.758570
PC45  10453.628024 -18340.482300 -18271.603121    -38.155759
PC46  13073.799625  20259.385334 -14016.682557    -21.404929
PE01  18718.273132 -16327.088733 -16112.009711   -582.217849
PE02 -18656.496403  16586.920875  15883.168297     10.219119
PE03 -26364.654511   9993.708161   9012.008301   -632.531661
PE04   9804.797895 -17048.262136 -22123.896224    -20.041645
PE05 -27789.937899  -3106.280175  -9704.412322   -112.418549
PE07  12963.761854  14211.477270  22495.650625     -9.340641
PE08  -9854.323499  16931.696536  22185.201648     -7.216845
PE09 -12770.664654 -14130.479477 -22663.936096   -773.686829
PE10  -8555.412773 -24949.949192  13441.291263   -499.757733
PE11 -16230.555532 -24507.249026   3435.710355    126.699404
PE12    -63.550206 -21535.350340  20305.271277   -348.466399
PE13  15734.077987  24693.316120  -4344.689390    430.269510
PE14 -28332.792366  -4815.469222   5943.171920     92.341067
PE15   -101.756176  21331.934750 -20509.744349    699.115079
PE18  19223.958092  12826.957304 -15106.785263   -596.247150
PE19  27630.540980  -8323.826401  -6612.837902  -3674.516547
PE21  16737.819513   2879.136091 -24246.037635   -501.931395
PE24  -4357.888075 -22640.938290  18566.573829  -1016.881398
PE25 -16611.152197  -3256.412159  24285.777280   -595.543896
PE26  22207.446395  12792.929156  14816.212210  -1873.352137
PE27   5113.419706  21950.924265 -19177.014259   -469.764490
PE30  -9974.062846  27771.695107  -2178.263502  -1100.139646
PE31   9409.730617 -27925.614478   2871.283695   -511.375134
PE33  15778.225882  -5398.241738  24465.560160   -455.253139
PE34 -15665.072865   5586.734614 -24485.758473    -21.023834
PE36 -22165.646532 -13557.196072 -14167.451155   -479.416618
PG01  18677.014885   9038.544044  16467.833804    234.049641
PG02 -18826.832642  -4423.830999 -17477.855834   -631.560308
PG03  16330.203935  -1392.579939  20755.545343   -375.010378
PG04  26512.274990    807.346290   2257.513580    -63.351033
PG05  -9976.296206 -13261.939341 -20881.796898   -109.126817
PG06  -2725.977486 -21923.155834  14749.856569    545.452808
PG07  13965.367047  -6433.220808 -21257.068262    270.400484
PG08  22275.833946   7137.801764 -12979.600374    -99.982674
PG09  23832.372338  -8126.172631  -8607.450416   -249.005046
PG10 -11011.743363  23961.172096   1076.768646    -17.278465
PG11 -11603.830097 -23723.824459   3018.517993    -62.518369
PG12 -16128.967511   -831.559948  20793.157491   -319.199358
PG13 -15647.210417 -13066.542304 -17302.791806    446.679877
PG14  13348.260377 -22851.996898  -1257.654712    -63.416165
PG15 -22973.510849  -5218.874584 -12978.372758     -1.763057
PG16   5579.439096  16992.853595 -19769.122174   -525.658082
PG17  13897.765840 -12910.834261  19067.741837    687.978476
PG18 -11792.274051   9266.389757 -21912.616817    -69.683831
PG19   1256.687826 -14744.744571  21819.230799    254.172376
PG20  -2884.623419 -22985.012617 -13166.497073    461.802089
PG21  20547.946992  14702.338080   9977.691743    153.159280
PG22   2249.164639  15374.797776  21979.886002    390.377849
PG23 -16058.795728  18546.498071  -9995.405260      0.611301
PG24 -20650.034185 -11353.652810  12306.921051      3.275265
PG25 -17817.273688  10181.805049  16401.441719    404.570567
PG26  -1812.686195  24212.478095 -10458.492010    238.965468
PG27  12370.772444  12918.123436 -19989.045341    146.044165
PG29 -25402.086777   4210.611568  -6721.716202   -575.827180
PG30   4952.173736 -17889.462280 -18814.159339   -534.902853
PG31   3457.936872  22615.090846  12926.040715   -204.101610
PG32 -10032.397829  14673.597060  19827.348366   -339.104847
PJ02 -32097.316422  25580.381833  14779.999815     -0.385146
PJ03 -23427.392342  18833.762956 -24903.625252     -7.283920
PJ04 -25836.124012  33518.342435   3658.793629    116.026738
PR01  21284.394325 -13721.918987  -3038.250993     20.006141
PR02   8533.272989 -14579.067923 -19101.633967    -23.376173
PR03  -9073.088574  -7291.286123 -22649.132786     69.559455
PR04 -21178.206471   3965.944467 -13614.093377    169.626955
PR05 -21795.511160  12903.250207   2890.493999    104.994563
PR07   9902.570531   6796.612570  22546.067971     46.607653
PR08  21279.732097  -4073.312731  13546.026020    -68.658732
PR09  -1243.605154  25433.951508   2076.726547     94.514530
PR11  10716.772113   4165.842995 -22763.426069     12.801754
PR12   8930.142916 -15982.707796 -17751.580762     23.815520
PR13   2209.830259 -25136.990200  -3774.899476    -30.215555
PR14  -6614.275472 -19885.690201  14540.615807     24.118157
PR15 -10901.864098  -3074.248260  22869.885091     92.176770
PR16  -8786.779927  15747.647283  18058.123438      9.001110
PR17 -18253.942739 -15885.866499   8146.472100    589.307715
PR18 -21997.367755  -9535.535107  -8615.812403     58.147292
PR19 -15385.736015    435.799547 -20335.049132   -215.551309
PR20   2879.748592  13512.033376 -21437.575818    -84.492860
PR21  19033.711822  15653.235266  -6527.243032   -359.640047
PR22  21665.661870   9717.652417   9368.388350 999999.999999
PR24  -3638.298579 -14038.994015  21011.550626    134.603757
PR25  17153.521106  16869.189060  -8438.186779     49.610106
EOF
